{
  "type": "FeatureCollection",
  "features": [
    {
      "type": "Feature",
      "properties": {
        "norad_id": 33805,
        "name": "COSMOS 2251 DEB",
        "group": "cosmos-2251-debris",
        "lat": -49.15424807932538,
        "lon": 146.77920735635834,
        "alt_km": 710.7800073632661,
        "timestamp": "2025-12-14T18:52:55.895946+00:00",
        "meta_object_name": "COSMOS 2251 DEB",
        "meta_object_id": "1993-036AW",
        "meta_epoch": "2025-12-13T23:42:40.775616",
        "meta_mean_motion": 14.57859059,
        "meta_eccentricity": 0.00601629,
        "meta_inclination": 74.0309,
        "meta_ra_of_asc_node": 308.9562,
        "meta_arg_of_pericenter": 137.5717,
        "meta_mean_anomaly": 223.0123,
        "meta_ephemeris_type": 0,
        "meta_classification_type": "U",
        "meta_norad_cat_id": 33805,
        "meta_element_set_no": 999,
        "meta_rev_at_epoch": 89245,
        "meta_bstar": 0.00032925043,
        "meta_mean_motion_dot": 1.516e-05,
        "meta_mean_motion_ddot": 0,
        "tle_line1": "1 33805U 93036AW  25347.98797194  .00001516  00000+0  32925-3 0  9991",
        "tle_line2": "2 33805  74.0309 308.9562 0060162 137.5717 223.0123 14.57859059892457"
      },
      "geometry": {
        "type": "Point",
        "coordinates": [
          146.77920735635834,
          -49.15424807932538
        ]
      }
    },
    {
      "type": "Feature",
      "properties": {
        "norad_id": 33811,
        "name": "COSMOS 2251 DEB",
        "group": "cosmos-2251-debris",
        "lat": 73.79938266226733,
        "lon": 24.952489165828286,
        "alt_km": 535.7907503483775,
        "timestamp": "2025-12-14T18:52:55.895956+00:00",
        "meta_object_name": "COSMOS 2251 DEB",
        "meta_object_id": "1993-036BC",
        "meta_epoch": "2025-12-13T23:38:16.116864",
        "meta_mean_motion": 15.05323991,
        "meta_eccentricity": 0.00307558,
        "meta_inclination": 73.8379,
        "meta_ra_of_asc_node": 300.0738,
        "meta_arg_of_pericenter": 20.5005,
        "meta_mean_anomaly": 44.6469,
        "meta_ephemeris_type": 0,
        "meta_classification_type": "U",
        "meta_norad_cat_id": 33811,
        "meta_element_set_no": 999,
        "meta_rev_at_epoch": 90037,
        "meta_bstar": 0.0011063198,
        "meta_mean_motion_dot": 0.00016,
        "meta_mean_motion_ddot": 0,
        "tle_line1": "1 33811U 93036BC  25347.98490876  .00016000  00000+0  11063-2 0  9998",
        "tle_line2": "2 33811  73.8379 300.0738 0030755  20.5005  44.6469 15.05323991900378"
      },
      "geometry": {
        "type": "Point",
        "coordinates": [
          24.952489165828286,
          73.79938266226733
        ]
      }
    },
    {
      "type": "Feature",
      "properties": {
        "norad_id": 33815,
        "name": "COSMOS 2251 DEB",
        "group": "cosmos-2251-debris",
        "lat": -66.98715483247747,
        "lon": 34.94908628858312,
        "alt_km": 515.6277868673878,
        "timestamp": "2025-12-14T18:52:55.895967+00:00",
        "meta_object_name": "COSMOS 2251 DEB",
        "meta_object_id": "1993-036BG",
        "meta_epoch": "2025-12-13T23:18:57.597408",
        "meta_mean_motion": 15.18472653,
        "meta_eccentricity": 0.00013921,
        "meta_inclination": 73.9517,
        "meta_ra_of_asc_node": 173.9958,
        "meta_arg_of_pericenter": 264.5403,
        "meta_mean_anomaly": 213.6612,
        "meta_ephemeris_type": 0,
        "meta_classification_type": "U",
        "meta_norad_cat_id": 33815,
        "meta_element_set_no": 999,
        "meta_rev_at_epoch": 88389,
        "meta_bstar": 0.0074110076,
        "meta_mean_motion_dot": 0.00156118,
        "meta_mean_motion_ddot": 0,
        "tle_line1": "1 33815U 93036BG  25347.97149997  .00156118  00000+0  74110-2 0  9993",
        "tle_line2": "2 33815  73.9517 173.9958 0001392 264.5403 213.6612 15.18472653883894"
      },
      "geometry": {
        "type": "Point",
        "coordinates": [
          34.94908628858312,
          -66.98715483247747
        ]
      }
    },
    {
      "type": "Feature",
      "properties": {
        "norad_id": 33816,
        "name": "COSMOS 2251 DEB",
        "group": "cosmos-2251-debris",
        "lat": -11.464146253091858,
        "lon": -74.7142061560655,
        "alt_km": 914.1277800877333,
        "timestamp": "2025-12-14T18:52:55.895977+00:00",
        "meta_object_name": "COSMOS 2251 DEB",
        "meta_object_id": "1993-036BH",
        "meta_epoch": "2025-12-13T17:39:31.554432",
        "meta_mean_motion": 13.81784983,
        "meta_eccentricity": 0.02646448,
        "meta_inclination": 73.895,
        "meta_ra_of_asc_node": 103.7076,
        "meta_arg_of_pericenter": 116.4402,
        "meta_mean_anomaly": 246.4136,
        "meta_ephemeris_type": 0,
        "meta_classification_type": "U",
        "meta_norad_cat_id": 33816,
        "meta_element_set_no": 999,
        "meta_rev_at_epoch": 84687,
        "meta_bstar": 0.00062873631,
        "meta_mean_motion_dot": 8.57e-06,
        "meta_mean_motion_ddot": 0,
        "tle_line1": "1 33816U 93036BH  25347.73578188  .00000857  00000+0  62874-3 0  9999",
        "tle_line2": "2 33816  73.8950 103.7076 0264644 116.4402 246.4136 13.81784983846874"
      },
      "geometry": {
        "type": "Point",
        "coordinates": [
          -74.7142061560655,
          -11.464146253091858
        ]
      }
    },
    {
      "type": "Feature",
      "properties": {
        "norad_id": 33818,
        "name": "COSMOS 2251 DEB",
        "group": "cosmos-2251-debris",
        "lat": 72.12416794945528,
        "lon": -80.27043721554702,
        "alt_km": 509.3359944384956,
        "timestamp": "2025-12-14T18:52:55.895988+00:00",
        "meta_object_name": "COSMOS 2251 DEB",
        "meta_object_id": "1993-036BK",
        "meta_epoch": "2025-12-13T22:20:02.047200",
        "meta_mean_motion": 15.12624985,
        "meta_eccentricity": 0.00266465,
        "meta_inclination": 74.0759,
        "meta_ra_of_asc_node": 163.7791,
        "meta_arg_of_pericenter": 152.208,
        "meta_mean_anomaly": 325.8546,
        "meta_ephemeris_type": 0,
        "meta_classification_type": "U",
        "meta_norad_cat_id": 33818,
        "meta_element_set_no": 999,
        "meta_rev_at_epoch": 89880,
        "meta_bstar": 0.0023144509,
        "meta_mean_motion_dot": 0.00040984,
        "meta_mean_motion_ddot": 0,
        "tle_line1": "1 33818U 93036BK  25347.93057925  .00040984  00000+0  23145-2 0  9996",
        "tle_line2": "2 33818  74.0759 163.7791 0026646 152.2080 325.8546 15.12624985898802"
      },
      "geometry": {
        "type": "Point",
        "coordinates": [
          -80.27043721554702,
          72.12416794945528
        ]
      }
    },
    {
      "type": "Feature",
      "properties": {
        "norad_id": 33819,
        "name": "COSMOS 2251 DEB",
        "group": "cosmos-2251-debris",
        "lat": -9.889617419148946,
        "lon": -156.69018598020824,
        "alt_km": 773.2203057528122,
        "timestamp": "2025-12-14T18:52:55.895998+00:00",
        "meta_object_name": "COSMOS 2251 DEB",
        "meta_object_id": "1993-036BL",
        "meta_epoch": "2025-12-13T23:19:38.184672",
        "meta_mean_motion": 14.32229369,
        "meta_eccentricity": 0.00891186,
        "meta_inclination": 74.1788,
        "meta_ra_of_asc_node": 207.6167,
        "meta_arg_of_pericenter": 68.5648,
        "meta_mean_anomaly": 42.8869,
        "meta_ephemeris_type": 0,
        "meta_classification_type": "U",
        "meta_norad_cat_id": 33819,
        "meta_element_set_no": 999,
        "meta_rev_at_epoch": 87513,
        "meta_bstar": 0.00083910166,
        "meta_mean_motion_dot": 2.34e-05,
        "meta_mean_motion_ddot": 0,
        "tle_line1": "1 33819U 93036BL  25347.97196973  .00002340  00000+0  83910-3 0  9999",
        "tle_line2": "2 33819  74.1788 207.6167 0089118  68.5648  42.8869 14.32229369875136"
      },
      "geometry": {
        "type": "Point",
        "coordinates": [
          -156.69018598020824,
          -9.889617419148946
        ]
      }
    },
    {
      "type": "Feature",
      "properties": {
        "norad_id": 33821,
        "name": "COSMOS 2251 DEB",
        "group": "cosmos-2251-debris",
        "lat": -5.6004644682169085,
        "lon": 136.90027261089185,
        "alt_km": 528.1435870252944,
        "timestamp": "2025-12-14T18:52:55.896008+00:00",
        "meta_object_name": "COSMOS 2251 DEB",
        "meta_object_id": "1993-036BN",
        "meta_epoch": "2025-12-13T20:52:18.329376",
        "meta_mean_motion": 15.25405262,
        "meta_eccentricity": 0.00515684,
        "meta_inclination": 74.0295,
        "meta_ra_of_asc_node": 140.4479,
        "meta_arg_of_pericenter": 173.6429,
        "meta_mean_anomaly": 186.5438,
        "meta_ephemeris_type": 0,
        "meta_classification_type": "U",
        "meta_norad_cat_id": 33821,
        "meta_element_set_no": 999,
        "meta_rev_at_epoch": 75018,
        "meta_bstar": 0.0013310053,
        "meta_mean_motion_dot": 0.00035057,
        "meta_mean_motion_ddot": 0,
        "tle_line1": "1 33821U 93036BN  25347.86965659  .00035057  00000+0  13310-2 0  9992",
        "tle_line2": "2 33821  74.0295 140.4479 0051568 173.6429 186.5438 15.25405262750180"
      },
      "geometry": {
        "type": "Point",
        "coordinates": [
          136.90027261089185,
          -5.6004644682169085
        ]
      }
    }
  ]
}